start=new Date('2022-10-14T00:00:00.000Z').valueOf();
sats=[{"RCS_SIZE":"LARGE","MEAN_MOTION":"15.08828963","EPOCH":"2022-10-13T13:32:31.823808","OBJECT_NAME":"STARLINK-3044","BSTAR":"0.00010040000000","ELEMENT_SET_NO":"999","ECCENTRICITY":"0.00020930","REF_FRAME":"TEME","GP_ID":"214994622","OBJECT_TYPE":"PAYLOAD","TLE_LINE1":"1 49438U 21104AG  22286.56425722  .00001310  00000-0  10040-3 0  9992","MEAN_ANOMALY":"318.8912","PERIOD":"95.438","TLE_LINE2":"2 49438  53.2188  29.7352 0002093  41.2238 318.8912 15.08828963 51243","INCLINATION":"53.2188","SEMIMAJOR_AXIS":"6917.914","PERIAPSIS":"538.331","SITE":"AFETR","OBJECT_ID":"2021-104AG","EPHEMERIS_TYPE":"0","REV_AT_EPOCH":"5124","FILE":"3609209","ARG_OF_PERICENTER":"41.2238","COUNTRY_CODE":"US","MEAN_MOTION_DDOT":"0.0000000000000","DECAY_DATE":null,"CLASSIFICATION_TYPE":"U","RA_OF_ASC_NODE":"29.7352","LAUNCH_DATE":"2021-11-13","CENTER_NAME":"EARTH","TIME_SYSTEM":"UTC","NORAD_CAT_ID":"49438","MEAN_MOTION_DOT":"0.00001310","MEAN_ELEMENT_THEORY":"SGP4","APOAPSIS":"541.227"},{"APOAPSIS":"541.306","TIME_SYSTEM":"UTC","NORAD_CAT_ID":"49439","MEAN_MOTION_DOT":"0.00002658","MEAN_ELEMENT_THEORY":"SGP4","RA_OF_ASC_NODE":"29.8228","CENTER_NAME":"EARTH","LAUNCH_DATE":"2021-11-13","MEAN_MOTION_DDOT":"0.0000000000000","DECAY_DATE":null,"CLASSIFICATION_TYPE":"U","ARG_OF_PERICENTER":"31.6788","COUNTRY_CODE":"US","EPHEMERIS_TYPE":"0","OBJECT_ID":"2021-104AH","REV_AT_EPOCH":"5124","FILE":"3609209","SEMIMAJOR_AXIS":"6917.881","PERIAPSIS":"538.185","SITE":"AFETR","MEAN_ANOMALY":"328.4340","PERIOD":"95.438","TLE_LINE2":"2 49439  53.2191  29.8228 0002256  31.6788 328.4340 15.08839941 51245","INCLINATION":"53.2191","OBJECT_TYPE":"PAYLOAD","TLE_LINE1":"1 49439U 21104AH  22286.54585725  .00002658  00000-0  18504-3 0  9990","REF_FRAME":"TEME","GP_ID":"214994874","ECCENTRICITY":"0.00022560","ELEMENT_SET_NO":"999","EPOCH":"2022-10-13T13:06:02.066400","OBJECT_NAME":"STARLINK-3108","BSTAR":"0.00018504000000","RCS_SIZE":"LARGE","MEAN_MOTION":"15.08839941"},{"ELEMENT_SET_NO":"999","ECCENTRICITY":"0.00023550","REF_FRAME":"TEME","GP_ID":"214995624","MEAN_MOTION":"15.08824605","RCS_SIZE":"LARGE","EPOCH":"2022-10-13T13:27:14.215680","BSTAR":"0.00011706000000","OBJECT_NAME":"STARLINK-3105","MEAN_ANOMALY":"333.0369","PERIOD":"95.439","INCLINATION":"53.2180","TLE_LINE2":"2 49440  53.2180  29.7551 0002355  27.0745 333.0369 15.08824605 51249","OBJECT_TYPE":"PAYLOAD","TLE_LINE1":"1 49440U 21104AJ  22286.56058120  .00001574  00000-0  11706-3 0  9991","ARG_OF_PERICENTER":"27.0745","COUNTRY_CODE":"US","MEAN_MOTION_DDOT":"0.0000000000000","DECAY_DATE":null,"CLASSIFICATION_TYPE":"U","PERIAPSIS":"538.163","SEMIMAJOR_AXIS":"6917.927","SITE":"AFETR","EPHEMERIS_TYPE":"0","OBJECT_ID":"2021-104AJ","FILE":"3609209","REV_AT_EPOCH":"5124","APOAPSIS":"541.422","RA_OF_ASC_NODE":"29.7551","LAUNCH_DATE":"2021-11-13","CENTER_NAME":"EARTH","MEAN_MOTION_DOT":"0.00001574","NORAD_CAT_ID":"49440","TIME_SYSTEM":"UTC","MEAN_ELEMENT_THEORY":"SGP4"},{"OBJECT_NAME":"STARLINK-3128","BSTAR":"0.00015751000000","EPOCH":"2022-10-13T11:25:19.881984","RCS_SIZE":"LARGE","MEAN_MOTION":"15.08830982","GP_ID":"214993873","REF_FRAME":"TEME","ECCENTRICITY":"0.00026590","ELEMENT_SET_NO":"999","TLE_LINE1":"1 49441U 21104AK  22286.47592456  .00002219  00000-0  15751-3 0  9998","OBJECT_TYPE":"PAYLOAD","INCLINATION":"53.2188","TLE_LINE2":"2 49441  53.2188  30.1369 0002659  35.7224 324.3946 15.08830982 51234","MEAN_ANOMALY":"324.3946","PERIOD":"95.438","FILE":"3609209","REV_AT_EPOCH":"5123","OBJECT_ID":"2021-104AK","EPHEMERIS_TYPE":"0","SITE":"AFETR","SEMIMAJOR_AXIS":"6917.908","PERIAPSIS":"537.933","DECAY_DATE":null,"CLASSIFICATION_TYPE":"U","MEAN_MOTION_DDOT":"0.0000000000000","COUNTRY_CODE":"US","ARG_OF_PERICENTER":"35.7224","MEAN_ELEMENT_THEORY":"SGP4","TIME_SYSTEM":"UTC","NORAD_CAT_ID":"49441","MEAN_MOTION_DOT":"0.00002219","LAUNCH_DATE":"2021-11-13","CENTER_NAME":"EARTH","RA_OF_ASC_NODE":"30.1369","APOAPSIS":"541.612"},{"MEAN_MOTION":"15.08827832","RCS_SIZE":"LARGE","EPOCH":"2022-10-13T16:32:42.411264","BSTAR":"0.00022722000000","OBJECT_NAME":"STARLINK-3098","ECCENTRICITY":"0.00022010","ELEMENT_SET_NO":"999","REF_FRAME":"TEME","GP_ID":"215027189","TLE_LINE1":"1 49442U 21104AL  22286.68937976  .00003329  00000-0  22722-3 0  9991","OBJECT_TYPE":"PAYLOAD","PERIOD":"95.438","MEAN_ANOMALY":"321.4786","INCLINATION":"53.2184","TLE_LINE2":"2 49442  53.2184  29.1714 0002201  38.6363 321.4786 15.08827832 51265","PERIAPSIS":"538.260","SEMIMAJOR_AXIS":"6917.918","SITE":"AFETR","OBJECT_ID":"2021-104AL","EPHEMERIS_TYPE":"0","REV_AT_EPOCH":"5126","FILE":"3609636","ARG_OF_PERICENTER":"38.6363","COUNTRY_CODE":"US","MEAN_MOTION_DDOT":"0.0000000000000","CLASSIFICATION_TYPE":"U","DECAY_DATE":null,"RA_OF_ASC_NODE":"29.1714","CENTER_NAME":"EARTH","LAUNCH_DATE":"2021-11-13","MEAN_MOTION_DOT":"0.00003329","NORAD_CAT_ID":"49442","TIME_SYSTEM":"UTC","MEAN_ELEMENT_THEORY":"SGP4","APOAPSIS":"541.305"},{"TLE_LINE2":"2 49443  53.2176  30.1446 0002117  31.4428 328.6690 15.08828718 51234","INCLINATION":"53.2176","PERIOD":"95.438","MEAN_ANOMALY":"328.6690","OBJECT_TYPE":"PAYLOAD","TLE_LINE1":"1 49443U 21104AM  22286.47225449 -.00000728  00000-0 -27661-4 0  9994","ELEMENT_SET_NO":"999","ECCENTRICITY":"0.00021170","GP_ID":"214995374","REF_FRAME":"TEME","RCS_SIZE":"LARGE","MEAN_MOTION":"15.08828718","OBJECT_NAME":"STARLINK-3136","BSTAR":"-0.00002766100000","EPOCH":"2022-10-13T11:20:02.787936","APOAPSIS":"541.244","LAUNCH_DATE":"2021-11-13","CENTER_NAME":"EARTH","RA_OF_ASC_NODE":"30.1446","MEAN_ELEMENT_THEORY":"SGP4","NORAD_CAT_ID":"49443","TIME_SYSTEM":"UTC","MEAN_MOTION_DOT":"-0.00000728","COUNTRY_CODE":"US","ARG_OF_PERICENTER":"31.4428","DECAY_DATE":null,"CLASSIFICATION_TYPE":"U","MEAN_MOTION_DDOT":"0.0000000000000","SITE":"AFETR","PERIAPSIS":"538.315","SEMIMAJOR_AXIS":"6917.915","REV_AT_EPOCH":"5123","FILE":"3609209","OBJECT_ID":"2021-104AM","EPHEMERIS_TYPE":"0"},{"PERIOD":"95.438","MEAN_ANOMALY":"322.8373","TLE_LINE2":"2 49444  53.2176  29.7825 0002194  37.2771 322.8373 15.08839376 51247","INCLINATION":"53.2176","TLE_LINE1":"1 49444U 21104AN  22286.55321198  .00002228  00000-0  15808-3 0  9996","OBJECT_TYPE":"PAYLOAD","ELEMENT_SET_NO":"999","ECCENTRICITY":"0.00021940","REF_FRAME":"TEME","GP_ID":"214995125","RCS_SIZE":"LARGE","MEAN_MOTION":"15.08839376","EPOCH":"2022-10-13T13:16:37.515072","OBJECT_NAME":"STARLINK-3126","BSTAR":"0.00015808000000","APOAPSIS":"541.265","RA_OF_ASC_NODE":"29.7825","LAUNCH_DATE":"2021-11-13","CENTER_NAME":"EARTH","NORAD_CAT_ID":"49444","TIME_SYSTEM":"UTC","MEAN_MOTION_DOT":"0.00002228","MEAN_ELEMENT_THEORY":"SGP4","ARG_OF_PERICENTER":"37.2771","COUNTRY_CODE":"US","MEAN_MOTION_DDOT":"0.0000000000000","CLASSIFICATION_TYPE":"U","DECAY_DATE":null,"SEMIMAJOR_AXIS":"6917.882","PERIAPSIS":"538.230","SITE":"AFETR","EPHEMERIS_TYPE":"0","OBJECT_ID":"2021-104AN","FILE":"3609209","REV_AT_EPOCH":"5124"},{"MEAN_MOTION_DDOT":"0.0000000000000","CLASSIFICATION_TYPE":"U","DECAY_DATE":null,"ARG_OF_PERICENTER":"43.5172","COUNTRY_CODE":"US","OBJECT_ID":"2021-104AP","EPHEMERIS_TYPE":"0","REV_AT_EPOCH":"5114","FILE":"3609636","SEMIMAJOR_AXIS":"6917.897","PERIAPSIS":"538.411","SITE":"AFETR","APOAPSIS":"541.113","NORAD_CAT_ID":"49445","TIME_SYSTEM":"UTC","MEAN_MOTION_DOT":"0.00004985","MEAN_ELEMENT_THEORY":"SGP4","RA_OF_ASC_NODE":"38.5344","LAUNCH_DATE":"2021-11-13","CENTER_NAME":"EARTH","REF_FRAME":"TEME","GP_ID":"215028927","ELEMENT_SET_NO":"999","ECCENTRICITY":"0.00019530","EPOCH":"2022-10-13T19:58:01.781184","OBJECT_NAME":"STARLINK-3122","BSTAR":"0.00033116000000","RCS_SIZE":"LARGE","MEAN_MOTION":"15.08834453","PERIOD":"95.438","MEAN_ANOMALY":"316.5974","TLE_LINE2":"2 49445  53.2170  38.5344 0001953  43.5172 316.5974 15.08834453 51140","INCLINATION":"53.2170","TLE_LINE1":"1 49445U 21104AP  22286.83196506  .00004985  00000-0  33116-3 0  9995","OBJECT_TYPE":"PAYLOAD"},{"APOAPSIS":"540.942","NORAD_CAT_ID":"49446","TIME_SYSTEM":"UTC","MEAN_MOTION_DOT":"0.00003627","MEAN_ELEMENT_THEORY":"SGP4","RA_OF_ASC_NODE":"29.7983","LAUNCH_DATE":"2021-11-13","CENTER_NAME":"EARTH","MEAN_MOTION_DDOT":"0.0000000000000","DECAY_DATE":null,"CLASSIFICATION_TYPE":"U","ARG_OF_PERICENTER":"62.8615","COUNTRY_CODE":"US","OBJECT_ID":"2021-104AQ","EPHEMERIS_TYPE":"0","REV_AT_EPOCH":"5124","FILE":"3609209","SEMIMAJOR_AXIS":"6917.929","PERIAPSIS":"538.646","SITE":"AFETR","MEAN_ANOMALY":"297.2546","PERIOD":"95.439","INCLINATION":"53.2175","TLE_LINE2":"2 49446  53.2175  29.7983 0001660  62.8615 297.2546 15.08824105 51242","OBJECT_TYPE":"PAYLOAD","TLE_LINE1":"1 49446U 21104AQ  22286.54953982  .00003627  00000-0  24595-3 0  9996","REF_FRAME":"TEME","GP_ID":"214994623","ECCENTRICITY":"0.00016600","ELEMENT_SET_NO":"999","EPOCH":"2022-10-13T13:11:20.240448","OBJECT_NAME":"STARLINK-3099","BSTAR":"0.00024595000000","RCS_SIZE":"LARGE","MEAN_MOTION":"15.08824105"},{"ELEMENT_SET_NO":"999","ECCENTRICITY":"0.00021740","REF_FRAME":"TEME","GP_ID":"214994875","RCS_SIZE":"LARGE","MEAN_MOTION":"15.08819031","EPOCH":"2022-10-13T10:15:07.928640","OBJECT_NAME":"STARLINK-3115","BSTAR":"0.00016029000000","PERIOD":"95.439","MEAN_ANOMALY":"314.3319","INCLINATION":"53.2170","TLE_LINE2":"2 49447  53.2170  40.3444 0002174  45.7852 314.3319 15.08819031 51086","TLE_LINE1":"1 49447U 21104AR  22286.42717510  .00002262  00000-0  16029-3 0  9996","OBJECT_TYPE":"PAYLOAD","ARG_OF_PERICENTER":"45.7852","COUNTRY_CODE":"US","MEAN_MOTION_DDOT":"0.0000000000000","DECAY_DATE":null,"CLASSIFICATION_TYPE":"U","SEMIMAJOR_AXIS":"6917.944","PERIAPSIS":"538.306","SITE":"AFETR","OBJECT_ID":"2021-104AR","EPHEMERIS_TYPE":"0","FILE":"3609209","REV_AT_EPOCH":"5108","APOAPSIS":"541.313","RA_OF_ASC_NODE":"40.3444","LAUNCH_DATE":"2021-11-13","CENTER_NAME":"EARTH","NORAD_CAT_ID":"49447","TIME_SYSTEM":"UTC","MEAN_MOTION_DOT":"0.00002262","MEAN_ELEMENT_THEORY":"SGP4"}];
